315P/LONEOS,e,17.7335,68.7424,65.7585,4.939773,0.0897726,0.52116019,215.4898,06/22.0/2023,2000,g 11.0,4.0
# From MPC 92279
316P/LONEOS-Christensen,e,9.8347,246.1357,191.1413,4.394910,0.1069742,0.15648969,306.4570,06/22.0/2023,2000,g 13.5,4.0
# From MPEC 2020-C98
317P/WISE,e,11.9571,275.4751,334.8236,2.962016,0.1933406,0.57076536,193.1922,06/22.0/2023,2000,g 17.5,4.0
# From MPC102103
318P/McNaught-Hartley,e,17.8897,35.5002,313.3570,7.506633,0.0479221,0.67484085,133.9816,06/22.0/2023,2000,g  8.5,6.0
# From MPC 97499
319P/Catalina-McNaught,e,15.0956,111.3612,203.6552,3.564470,0.1464575,0.66648375,65.5611,06/22.0/2023,2000,g 15.0,4.0
# From MPC 96281
320P/McNaught,e,4.9041,295.9494,0.7826,3.094526,0.1810560,0.68509638,160.4630,06/22.0/2023,2000,g 20.5,4.0
# From MPC105243
321P/SOHO,e,20.0774,165.0178,172.7446,2.423005,0.2613199,0.98106766,0.0000,10/26.6084/2023,2000,g 20.0,4.0
# From MPC102103
322P/SOHO,e,11.4644,351.4888,56.9256,2.507354,0.2482451,0.97998024,0.0000,08/21.0862/2023,2000,g 19.0,4.0
# From MPEC 2016-Y36
323P/SOHO,e,5.3134,324.4158,353.0252,2.583331,0.2373745,0.98471988,0.0000,03/14.4487/2025,2000,g 20.0,4.0
# From MPEC 2021-W31
324P/LaSagra,e,21.4021,270.5840,57.5459,3.094829,0.1810294,0.15353907,140.8453,06/22.0/2023,2000,g 13.0,4.0
# From MPEC 2022-TA0
325P/Yang-Gao,e,16.7097,257.3739,344.0448,3.530519,0.1485752,0.59348890,66.8051,06/22.0/2023,2000,g 14.0,4.0
# From MPEC 2023-M14
326P/Hill,e,2.4711,99.8078,278.6504,4.063780,0.1203120,0.31845563,336.9601,06/22.0/2023,2000,g 13.5,4.0
# From MPEC 2023-B57
327P/VanNess,e,36.2504,173.9838,185.0189,3.561749,0.1466254,0.56311141,42.9093,06/22.0/2023,2000,g 16.0,4.0
# From MPC109148
328P/LONEOS-Tucker,e,17.6723,341.6182,30.6106,4.189802,0.1149248,0.55273697,313.8095,06/22.0/2023,2000,g 14.5,4.0
# From MPC101101
329P/LINEAR-Catalina,e,21.7129,87.6538,343.5600,5.187270,0.0834249,0.67841588,230.1396,06/22.0/2023,2000,g 13.5,4.0
# From MPEC 2023-J29
330P/Catalina,e,15.7161,293.0803,188.8347,6.620981,0.0578523,0.54921327,144.1023,06/22.0/2023,2000,g 12.0,4.0
# From MPEC 2023-KD6
331P/Gibbs,e,9.7400,216.7519,184.6325,3.005119,0.1891958,0.04134045,187.4445,06/22.0/2023,2000,g 12.0,4.0
# From MPEC 2016-K18
332P/Ikeya-Murakami,e,9.3804,3.7816,152.2923,3.087412,0.1816821,0.48929397,122.2269,06/22.0/2023,2000,g 18.0,4.0
# From MPEC 2016-EI8
332P-B/Ikeya-Murakami,e,9.3805,3.8028,152.3711,3.082329,0.1821317,0.48970701,359.9699,03/17.0/2016,2000,g 19.0,4.0
# From MPEC 2016-K18
332P-C/Ikeya-Murakami,e,9.3795,3.7821,152.2836,3.087378,0.1816851,0.48929948,122.2431,06/22.0/2023,2000,g 16.5,4.0
# From MPEC 2016-ED0
332P-D/Ikeya-Murakami,e,9.3761,3.7923,152.4393,3.081138,0.1822373,0.48977814,359.9486,03/17.0/2016,2000,g 19.0,4.0
# From MPEC 2016-ED0
332P-E/Ikeya-Murakami,e,9.3774,3.8228,152.2825,3.079877,0.1823493,0.48922008,359.9889,03/17.0/2016,2000,g 21.0,4.0
# From MPEC 2016-ED0
332P-F/Ikeya-Murakami,e,9.5293,3.4757,152.8203,3.163214,0.1751908,0.49918860,359.8501,03/17.0/2016,2000,g 21.0,4.0
# From MPEC 2016-ED0
332P-G/Ikeya-Murakami,e,9.2523,3.6955,154.4000,3.050519,0.1849880,0.49200362,359.9006,03/19.0/2016,2000,g 19.0,4.0
# From MPC100285
332P-H/Ikeya-Murakami,e,9.3800,3.7818,152.2842,3.087561,0.1816690,0.48933497,122.1671,06/22.0/2023,2000,g 19.0,4.0
# From MPEC 2016-ED0
332P-I/Ikeya-Murakami,e,9.3791,3.8048,152.3297,3.081767,0.1821815,0.48955490,359.9360,03/17.0/2016,2000,g 20.5,2.0
# From MPEC 2016-EI8
332P-J/Ikeya-Murakami,e,9.4296,3.6729,152.7712,3.115165,0.1792596,0.49429435,359.8613,03/17.0/2016,2000,g 20.5,2.0
# From MPEC 2020-L06
333P/LINEAR,e,132.0160,115.6789,25.9898,4.221551,0.1136308,0.73636184,300.2007,06/22.0/2023,2000,g 15.0,4.0
# From MPEC 2023-J29
334P/NEAT,e,20.3875,90.5481,90.0724,6.834035,0.0551681,0.35064828,121.9065,06/22.0/2023,2000,g 10.5,4.0
# From MPEC 2023-M14
335P/Gibbs,e,7.2928,330.8394,162.3031,3.578385,0.1456041,0.54627864,45.7185,06/22.0/2023,2000,g 16.8,4.0
# From MPC105244
336P/McNaught,e,17.8240,298.2756,308.6522,5.036832,0.0871902,0.44383138,203.6058,06/22.0/2023,2000,g 13.5,4.0
# From MPEC 2023-J29
337P/WISE,e,15.3686,105.9700,161.2071,3.290293,0.1651400,0.49716609,58.7232,06/22.0/2023,2000,g 17.0,4.0
# From MPEC 2023-J29
338P/McNaught,e,25.3862,9.7972,4.5310,3.892835,0.1283231,0.41214716,307.6586,06/22.0/2023,2000,g 12.0,4.0
# From MPC101101
339P/Gibbs,e,5.7332,172.7230,27.4638,3.700747,0.1384427,0.63567632,350.3160,06/22.0/2023,2000,g 17.0,4.0
# From MPC133426
340P/Boattini,e,2.0781,291.6984,35.9973,4.249758,0.1125014,0.28061895,270.1268,06/22.0/2023,2000,g 14.3,4.0
# From MPEC 2023-J29
341P/Gibbs,e,3.7971,29.9677,312.2893,4.289768,0.1109311,0.41566368,285.6324,06/22.0/2023,2000,g 12.5,4.0
# From MPC101101
342P/SOHO,e,11.6665,27.7074,73.2506,3.041193,0.1858395,0.98283196,0.0000,10/19.2898/2021,2000,g  9.0,4.0
# From MPEC 2023-J29
343P/NEAT-LONEOS,e,5.5930,257.0905,137.5188,5.457705,0.0773017,0.58525245,180.2762,06/22.0/2023,2000,g 14.0,4.0
# From MPEC 2023-J29
344P/Read,e,3.4963,273.1100,140.4808,4.859952,0.0919933,0.42345523,222.6195,06/22.0/2023,2000,g 13.0,4.0
# From MPEC 2022-K19
345P/LINEAR,e,2.7275,154.5122,196.6572,4.033606,0.1216645,0.22145529,307.0174,06/22.0/2023,2000,g 12.0,4.0
# From MPEC 2022-K19
346P/Catalina,e,22.2084,102.4518,335.9746,4.472430,0.1042051,0.50348377,241.5831,06/22.0/2023,2000,g 14.0,4.0
# From MPEC 2022-K19
347P/PANSTARRS,e,11.7537,261.0153,98.4322,3.605504,0.1439644,0.38635467,355.9612,06/22.0/2023,2000,g 15.0,4.0
# From MPEC 2022-ED3
348P/PANSTARRS,e,17.7366,312.9310,135.6975,3.151873,0.1761372,0.30716479,87.0721,06/22.0/2023,2000,g 14.0,4.0
# From MPEC 2022-K19
349P/Lemmon,e,5.4894,331.7570,255.8456,3.577171,0.1456782,0.29842626,310.4208,06/22.0/2023,2000,g 14.0,4.0
# From MPC111775
350P/McNaught,e,7.3651,65.2946,139.7578,4.083096,0.1194592,0.09383986,240.7474,06/22.0/2023,2000,g 14.0,4.0
# From MPC105244
351P/Wiegert-PANSTARRS,e,12.7776,283.4110,352.6523,4.439834,0.1053547,0.29496394,292.1933,06/22.0/2023,2000,g 12.5,4.0
# From MPEC 2023-J29
352P/Skiff,e,21.0148,27.9993,309.3807,6.648549,0.0574928,0.61756380,125.9350,06/22.0/2023,2000,g 13.2,4.0
# From MPEC 2020-AA5
353P/McNaught,e,28.4082,121.5103,230.5019,4.170564,0.1157209,0.47028519,232.1469,06/22.0/2023,2000,g 14.5,4.0
# From MPC105545
354P/LINEAR,e,5.2506,320.0848,132.6594,2.290466,0.2843271,0.12480973,327.6438,06/22.0/2023,2000,g 15.5,4.0
# From MPEC 2023-CD7
355P/LINEAR-NEAT,e,11.0471,51.4340,336.3263,3.468848,0.1525549,0.50791113,316.6115,06/22.0/2023,2000,g 15.5,2.0
# From MPEC 2022-F14
356P/WISE,e,9.6373,160.7871,226.0912,4.156087,0.1163261,0.35601173,233.7064,06/22.0/2023,2000,g 14.0,4.0
# From MPC114609
357P/Hill,e,6.3166,44.5582,1.4237,4.457283,0.1047367,0.43594977,193.4921,06/22.0/2023,2000,g 15.5,4.0
# From MPEC 2020-HN5
358P/PANSTARRS,e,11.0597,85.6963,299.7488,3.147670,0.1764901,0.23920375,334.9336,06/22.0/2023,2000,g 18.0,4.0
# From MPC110086
359P/LONEOS,e,10.2640,149.7460,200.3009,4.640518,0.0985949,0.32397256,209.8389,06/22.0/2023,2000,g 13.5,4.0
# From MPC108599
360P/WISE,e,24.1102,2.1884,354.2250,3.699097,0.1385353,0.49928944,294.9366,06/22.0/2023,2000,g 19.5,6.0
# From MPEC 2023-CD7
361P/Spacewatch,e,13.9036,203.2597,219.0140,4.934642,0.0899126,0.43924540,163.0649,06/22.0/2023,2000,g 12.0,4.0
# From MPEC 2017-V13
362P/,e,15.5569,192.5452,53.5536,3.972706,0.1244728,0.27869993,310.9030,06/22.0/2023,2000,g 12.9,2.0
# From MPC114609
363P/Lemmon,e,5.3999,146.8589,340.8424,3.571389,0.1460321,0.51940691,285.4873,06/22.0/2023,2000,g 17.5,4.0
# From MPEC 2023-M14
364P/PANSTARRS,e,12.1376,46.1479,212.0208,2.879289,0.2017326,0.72170596,7.8638,06/22.0/2023,2000,g 17.0,2.0
# From MPC111775
365P/PANSTARRS,e,9.8447,86.3064,67.7724,3.155941,0.1757967,0.58130259,340.7708,06/22.0/2023,2000,g 17.0,4.0
# From MPC114610
366P/Spacewatch,e,8.8569,70.7628,153.0204,3.497365,0.1506929,0.34814313,271.2169,06/22.0/2023,2000,g 15.0,4.0
# From MPC112395
367P/Catalina,e,8.4592,58.7166,172.7555,3.508500,0.1499760,0.27973911,274.5144,06/22.0/2023,2000,g 17.5,2.0
# From MPC114610
368P/NEAT,e,15.4837,257.8239,118.9630,5.530569,0.0757791,0.62666901,131.8658,06/22.0/2023,2000,g 14.0,4.0
# From MPC114610
369P/Hill,e,10.3251,47.2929,13.1640,4.381000,0.1074841,0.55560884,183.6831,06/22.0/2023,2000,g 15.0,4.0
# From MPEC 2021-F20
370P/NEAT,e,19.4288,55.0637,356.7246,6.435464,0.0603718,0.61545619,110.8793,06/22.0/2023,2000,g 13.0,4.0
# From MPC114610
371P/LINEAR-Skiff,e,17.3877,67.2342,308.5845,4.180617,0.1153038,0.47708139,198.2431,06/22.0/2023,2000,g 16.0,4.0
# From MPEC 2020-K19
372P/McNaught,e,9.5047,325.8133,27.6929,4.508926,0.1029424,0.15229193,175.1517,06/22.0/2023,2000,g 13.5,4.0
# From MPEC 2021-F20
373P/Rinner,e,13.7707,231.9668,221.0032,3.800180,0.1330448,0.39314233,204.1645,06/22.0/2023,2000,g 14.5,4.0
# From MPC114610
374P/Larson,e,10.7657,7.9108,51.4633,4.971295,0.0889201,0.46355407,144.1923,06/22.0/2023,2000,g 14.0,4.0
# From MPEC 2021-F20
375P/Hill,e,17.3624,359.9334,119.3627,5.548860,0.0754047,0.65920499,123.9503,06/22.0/2023,2000,g 16.0,4.0
# From MPEC 2022-K19
376P/LONEOS,e,1.1680,313.1886,285.2164,5.761468,0.0712696,0.51520664,97.7574,06/22.0/2023,2000,g 12.5,4.0
# From MPEC 2022-N37
377P/Scotti,e,9.0241,226.0629,354.9802,6.701772,0.0568093,0.25121729,61.1319,06/22.0/2023,2000,g  9.5,4.0
# From MPEC 2023-D41
378P/McNaught,e,19.0823,93.9840,193.5425,6.314442,0.0621157,0.46679413,60.8789,06/22.0/2023,2000,g 12.0,4.0
# From MPC115889
379P/Spacewatch,e,12.4468,183.8142,30.6062,3.501752,0.1504097,0.34638496,212.9065,06/22.0/2023,2000,g 15.0,4.0
# From MPEC 2023-C45
380P/PANSTARRS,e,8.0369,129.8553,87.1018,4.409027,0.1064609,0.34282248,159.7130,06/22.0/2023,2000,g 12.5,4.0
# From MPEC 2021-J28
381P/LINEAR-Spacewatch,e,28.3747,173.7668,173.3159,7.139133,0.0516697,0.68163888,70.4750,06/22.0/2023,2000,g 17.5,2.0
# From MPEC 2022-Y15
382P/Larson,e,8.3771,173.3533,164.2469,6.083707,0.0656828,0.28111902,36.1758,06/22.0/2023,2000,g  8.0,4.0
# From MPEC 2022-OB6
